start=new Date('2022-06-20T00:00:00.000Z').valueOf();
sats=[{"REF_FRAME":"TEME","GP_ID":"206450658","BSTAR":"-0.00856160000000","EPHEMERIS_TYPE":"0","RCS_SIZE":"LARGE","TLE_LINE2":"2 52480  53.2173  46.0157 0002063  24.9915 243.7069 15.72628455  1306","CENTER_NAME":"EARTH","MEAN_ANOMALY":"243.7069","MEAN_MOTION_DOT":"-0.01055244","DECAY_DATE":null,"PERIOD":"91.566","INCLINATION":"53.2173","EPOCH":"2022-06-19T22:00:00.999936","OBJECT_TYPE":"PAYLOAD","REV_AT_EPOCH":"130","OBJECT_ID":"2022-049AF","SEMIMAJOR_AXIS":"6729.525","MEAN_MOTION":"15.72628455","SITE":"AFETR","PERIAPSIS":"350.002","NORAD_CAT_ID":"52480","APOAPSIS":"352.778","TIME_SYSTEM":"UTC","OBJECT_NAME":"STARLINK-3839","COUNTRY_CODE":"US","MEAN_MOTION_DDOT":"0.0000000000000","CLASSIFICATION_TYPE":"U","LAUNCH_DATE":"2022-05-06","ECCENTRICITY":"0.00020630","ARG_OF_PERICENTER":"24.9915","TLE_LINE1":"1 52480U 22049AF  22170.91667824 -.01055244  00000-0 -85616-2 0  9992","FILE":"3497669","MEAN_ELEMENT_THEORY":"SGP4","RA_OF_ASC_NODE":"46.0157","ELEMENT_SET_NO":"999"},{"MEAN_ELEMENT_THEORY":"SGP4","FILE":"3497669","TLE_LINE1":"1 52481U 22049AG  22170.91667824 -.01055211  00000-0 -85614-2 0  9995","ARG_OF_PERICENTER":"24.0202","ELEMENT_SET_NO":"999","RA_OF_ASC_NODE":"46.0195","COUNTRY_CODE":"US","OBJECT_NAME":"STARLINK-3842","TIME_SYSTEM":"UTC","LAUNCH_DATE":"2022-05-06","ECCENTRICITY":"0.00021160","CLASSIFICATION_TYPE":"U","MEAN_MOTION_DDOT":"0.0000000000000","REV_AT_EPOCH":"130","EPOCH":"2022-06-19T22:00:00.999936","OBJECT_TYPE":"PAYLOAD","NORAD_CAT_ID":"52481","APOAPSIS":"352.816","PERIAPSIS":"349.969","SITE":"AFETR","MEAN_MOTION":"15.72627628","OBJECT_ID":"2022-049AG","SEMIMAJOR_AXIS":"6729.528","MEAN_MOTION_DOT":"-0.01055211","MEAN_ANOMALY":"242.1575","CENTER_NAME":"EARTH","TLE_LINE2":"2 52481  53.2173  46.0195 0002116  24.0202 242.1575 15.72627628  1304","RCS_SIZE":"LARGE","EPHEMERIS_TYPE":"0","BSTAR":"-0.00856140000000","GP_ID":"206450210","REF_FRAME":"TEME","INCLINATION":"53.2173","PERIOD":"91.566","DECAY_DATE":null},{"RA_OF_ASC_NODE":"46.0081","ELEMENT_SET_NO":"999","FILE":"3497669","ARG_OF_PERICENTER":"51.5802","TLE_LINE1":"1 52482U 22049AH  22170.91667824  .00049739  00000-0  35623-3 0  9997","MEAN_ELEMENT_THEORY":"SGP4","MEAN_MOTION_DDOT":"0.0000000000000","CLASSIFICATION_TYPE":"U","ECCENTRICITY":"0.00018060","LAUNCH_DATE":"2022-05-06","TIME_SYSTEM":"UTC","OBJECT_NAME":"STARLINK-3813","COUNTRY_CODE":"US","MEAN_MOTION":"15.73231147","SEMIMAJOR_AXIS":"6727.806","OBJECT_ID":"2022-049AH","SITE":"AFETR","PERIAPSIS":"348.456","APOAPSIS":"350.886","NORAD_CAT_ID":"52482","EPOCH":"2022-06-19T22:00:00.999936","OBJECT_TYPE":"PAYLOAD","REV_AT_EPOCH":"130","DECAY_DATE":null,"PERIOD":"91.531","INCLINATION":"53.2154","BSTAR":"0.00035623000000","REF_FRAME":"TEME","GP_ID":"206450824","CENTER_NAME":"EARTH","TLE_LINE2":"2 52482  53.2154  46.0081 0001806  51.5802 220.0215 15.73231147  1308","EPHEMERIS_TYPE":"0","RCS_SIZE":"MEDIUM","MEAN_ANOMALY":"220.0215","MEAN_MOTION_DOT":"0.00049739"},{"RA_OF_ASC_NODE":"46.0142","ELEMENT_SET_NO":"999","FILE":"3497669","TLE_LINE1":"1 52483U 22049AJ  22170.91667824  .00038290  00000-0  27604-3 0  9998","ARG_OF_PERICENTER":"39.8478","MEAN_ELEMENT_THEORY":"SGP4","CLASSIFICATION_TYPE":"U","MEAN_MOTION_DDOT":"0.0000000000000","ECCENTRICITY":"0.00013800","LAUNCH_DATE":"2022-05-06","OBJECT_NAME":"STARLINK-3875","TIME_SYSTEM":"UTC","COUNTRY_CODE":"US","SITE":"AFETR","MEAN_MOTION":"15.73195633","SEMIMAJOR_AXIS":"6727.908","OBJECT_ID":"2022-049AJ","APOAPSIS":"350.701","NORAD_CAT_ID":"52483","PERIAPSIS":"348.844","OBJECT_TYPE":"PAYLOAD","EPOCH":"2022-06-19T22:00:00.999936","REV_AT_EPOCH":"130","PERIOD":"91.533","DECAY_DATE":null,"INCLINATION":"53.2154","BSTAR":"0.00027604000000","GP_ID":"206450454","REF_FRAME":"TEME","MEAN_ANOMALY":"228.6900","MEAN_MOTION_DOT":"0.00038290","CENTER_NAME":"EARTH","TLE_LINE2":"2 52483  53.2154  46.0142 0001380  39.8478 228.6900 15.73195633  1306","RCS_SIZE":"LARGE","EPHEMERIS_TYPE":"0"},{"MEAN_MOTION":"15.72610297","OBJECT_ID":"2022-049AK","SEMIMAJOR_AXIS":"6729.577","SITE":"AFETR","PERIAPSIS":"350.047","APOAPSIS":"352.837","NORAD_CAT_ID":"52484","EPOCH":"2022-06-19T22:00:00.999936","OBJECT_TYPE":"PAYLOAD","REV_AT_EPOCH":"130","DECAY_DATE":null,"PERIOD":"91.568","INCLINATION":"53.2173","BSTAR":"-0.00856830000000","GP_ID":"206450312","REF_FRAME":"TEME","TLE_LINE2":"2 52484  53.2173  46.0100 0002073  24.5753 247.2567 15.72610297  1302","CENTER_NAME":"EARTH","RCS_SIZE":"LARGE","EPHEMERIS_TYPE":"0","MEAN_MOTION_DOT":"-0.01055250","MEAN_ANOMALY":"247.2567","RA_OF_ASC_NODE":"46.0100","ELEMENT_SET_NO":"999","FILE":"3497669","ARG_OF_PERICENTER":"24.5753","TLE_LINE1":"1 52484U 22049AK  22170.91667824 -.01055250  00000-0 -85683-2 0  9997","MEAN_ELEMENT_THEORY":"SGP4","MEAN_MOTION_DDOT":"0.0000000000000","CLASSIFICATION_TYPE":"U","LAUNCH_DATE":"2022-05-06","ECCENTRICITY":"0.00020730","TIME_SYSTEM":"UTC","OBJECT_NAME":"STARLINK-3887","COUNTRY_CODE":"US"},{"CENTER_NAME":"EARTH","TLE_LINE2":"2 52485  53.2157  46.0100 0001600  32.0714 238.9822 15.73175813  1303","EPHEMERIS_TYPE":"0","RCS_SIZE":"MEDIUM","MEAN_MOTION_DOT":"0.00035119","MEAN_ANOMALY":"238.9822","BSTAR":"0.00025385000000","GP_ID":"206450556","REF_FRAME":"TEME","INCLINATION":"53.2157","DECAY_DATE":null,"PERIOD":"91.535","REV_AT_EPOCH":"130","EPOCH":"2022-06-19T22:00:00.999936","OBJECT_TYPE":"PAYLOAD","PERIAPSIS":"348.753","NORAD_CAT_ID":"52485","APOAPSIS":"350.906","MEAN_MOTION":"15.73175813","OBJECT_ID":"2022-049AL","SEMIMAJOR_AXIS":"6727.964","SITE":"AFETR","COUNTRY_CODE":"US","TIME_SYSTEM":"UTC","OBJECT_NAME":"STARLINK-3913","LAUNCH_DATE":"2022-05-06","ECCENTRICITY":"0.00016000","MEAN_MOTION_DDOT":"0.0000000000000","CLASSIFICATION_TYPE":"U","MEAN_ELEMENT_THEORY":"SGP4","FILE":"3497669","ARG_OF_PERICENTER":"32.0714","TLE_LINE1":"1 52485U 22049AL  22170.91667824  .00035119  00000-0  25385-3 0  9991","ELEMENT_SET_NO":"999","RA_OF_ASC_NODE":"46.0100"},{"OBJECT_TYPE":"PAYLOAD","EPOCH":"2022-06-19T22:22:08.809824","REV_AT_EPOCH":"718","MEAN_MOTION":"15.72937995","SEMIMAJOR_AXIS":"6728.642","OBJECT_ID":"2022-049AM","SITE":"AFETR","PERIAPSIS":"349.535","APOAPSIS":"351.480","NORAD_CAT_ID":"52486","BSTAR":"0.00000000000000","REF_FRAME":"TEME","GP_ID":"206425475","CENTER_NAME":"EARTH","TLE_LINE2":"2 52486  53.2225  45.9223 0001445  78.3637 281.8150 15.72937995  7187","RCS_SIZE":"LARGE","EPHEMERIS_TYPE":"0","MEAN_ANOMALY":"281.8150","MEAN_MOTION_DOT":"-0.00000618","DECAY_DATE":null,"PERIOD":"91.548","INCLINATION":"53.2225","FILE":"3497565","ARG_OF_PERICENTER":"78.3637","TLE_LINE1":"1 52486U 22049AM  22170.93204641 -.00000618  00000-0  00000+0 0  9998","MEAN_ELEMENT_THEORY":"SGP4","RA_OF_ASC_NODE":"45.9223","ELEMENT_SET_NO":"999","TIME_SYSTEM":"UTC","OBJECT_NAME":"STARLINK-3918","COUNTRY_CODE":"US","MEAN_MOTION_DDOT":"0.0000000000000","CLASSIFICATION_TYPE":"U","LAUNCH_DATE":"2022-05-06","ECCENTRICITY":"0.00014450"},{"TIME_SYSTEM":"UTC","OBJECT_NAME":"STARLINK-3902","COUNTRY_CODE":"US","MEAN_MOTION_DDOT":"0.0000000000000","CLASSIFICATION_TYPE":"U","LAUNCH_DATE":"2022-05-06","ECCENTRICITY":"0.00016680","ARG_OF_PERICENTER":"32.2761","TLE_LINE1":"1 52487U 22049AN  22170.91667824 -.00060482  00000-0 -42905-3 0  9993","FILE":"3497669","MEAN_ELEMENT_THEORY":"SGP4","RA_OF_ASC_NODE":"46.0106","ELEMENT_SET_NO":"999","REF_FRAME":"TEME","GP_ID":"206450108","BSTAR":"-0.00042905000000","EPHEMERIS_TYPE":"0","RCS_SIZE":"MEDIUM","TLE_LINE2":"2 52487  53.2155  46.0106 0001668  32.2761 238.1510 15.73229608  1305","CENTER_NAME":"EARTH","MEAN_MOTION_DOT":"-0.00060482","MEAN_ANOMALY":"238.1510","DECAY_DATE":null,"PERIOD":"91.531","INCLINATION":"53.2155","EPOCH":"2022-06-19T22:00:00.999936","OBJECT_TYPE":"PAYLOAD","REV_AT_EPOCH":"130","SEMIMAJOR_AXIS":"6727.811","OBJECT_ID":"2022-049AN","MEAN_MOTION":"15.73229608","SITE":"AFETR","PERIAPSIS":"348.554","APOAPSIS":"350.798","NORAD_CAT_ID":"52487"},{"COUNTRY_CODE":"US","TIME_SYSTEM":"UTC","OBJECT_NAME":"STARLINK-3892","LAUNCH_DATE":"2022-05-06","ECCENTRICITY":"0.00053470","MEAN_MOTION_DDOT":"0.0000000000000","CLASSIFICATION_TYPE":"U","MEAN_ELEMENT_THEORY":"SGP4","ARG_OF_PERICENTER":"66.3104","TLE_LINE1":"1 52488U 22049AP  22170.93182559 -.00000625  00000-0  00000+0 0  9991","FILE":"3497559","ELEMENT_SET_NO":"999","RA_OF_ASC_NODE":"45.9544","RCS_SIZE":"MEDIUM","EPHEMERIS_TYPE":"0","CENTER_NAME":"EARTH","TLE_LINE2":"2 52488  53.2435  45.9544 0005347  66.3104 293.9068 15.72952857  7185","MEAN_ANOMALY":"293.9068","MEAN_MOTION_DOT":"-0.00000625","REF_FRAME":"TEME","GP_ID":"206425462","BSTAR":"0.00000000000000","INCLINATION":"53.2435","DECAY_DATE":null,"PERIOD":"91.548","REV_AT_EPOCH":"718","OBJECT_TYPE":"PAYLOAD","EPOCH":"2022-06-19T22:21:49.730976","PERIAPSIS":"346.867","NORAD_CAT_ID":"52488","APOAPSIS":"354.063","OBJECT_ID":"2022-049AP","SEMIMAJOR_AXIS":"6728.600","MEAN_MOTION":"15.72952857","SITE":"AFETR"},{"CENTER_NAME":"EARTH","TLE_LINE2":"2 52489  53.2173  46.0099 0001729  33.4036 239.0644 15.72616811  1307","RCS_SIZE":"MEDIUM","EPHEMERIS_TYPE":"0","MEAN_MOTION_DOT":"-0.01054985","MEAN_ANOMALY":"239.0644","BSTAR":"-0.00856480000000","REF_FRAME":"TEME","GP_ID":"206450211","INCLINATION":"53.2173","DECAY_DATE":null,"PERIOD":"91.567","REV_AT_EPOCH":"130","EPOCH":"2022-06-19T22:00:00.999936","OBJECT_TYPE":"PAYLOAD","PERIAPSIS":"350.260","NORAD_CAT_ID":"52489","APOAPSIS":"352.587","MEAN_MOTION":"15.72616811","SEMIMAJOR_AXIS":"6729.558","OBJECT_ID":"2022-049AQ","SITE":"AFETR","COUNTRY_CODE":"US","TIME_SYSTEM":"UTC","OBJECT_NAME":"STARLINK-3923","LAUNCH_DATE":"2022-05-06","ECCENTRICITY":"0.00017290","MEAN_MOTION_DDOT":"0.0000000000000","CLASSIFICATION_TYPE":"U","MEAN_ELEMENT_THEORY":"SGP4","FILE":"3497669","ARG_OF_PERICENTER":"33.4036","TLE_LINE1":"1 52489U 22049AQ  22170.91667824 -.01054985  00000-0 -85648-2 0  9997","ELEMENT_SET_NO":"999","RA_OF_ASC_NODE":"46.0099"}];
